ONEWEB-0183             
1 48219U 21031K   25216.77004362  .00000030  00000+0  46303-4 0  9998
2 48219  87.9073 352.6849 0001801 103.8689 256.2641 13.14502982206753
ONEWEB-0185             
1 48220U 21031L   25216.79619594 -.00000211  00000+0 -60290-3 0  9994
2 48220  87.9071 352.6451 0001545 109.2423 250.8874 13.14501828206681
ONEWEB-0187             
1 48221U 21031M   25217.08071844 -.00000053  00000+0 -17696-3 0  9994
2 48221  87.9074 352.6356 0001509 100.1788 259.9512 13.14502330206737
ONEWEB-0192             
1 48222U 21031N   25217.12683633  .00000222  00000+0  56438-3 0  9998
2 48222  87.9075 352.6193 0001772  95.0077 265.1255 13.14504600206660
ONEWEB-0219             
1 48223U 21031P   25216.80176189 -.00000150  00000+0 -44001-3 0  9991
2 48223  87.9072 352.6562 0001551 103.4178 256.7124 13.14505300206815
ONEWEB-0202             
1 48224U 21031Q   25216.78271750 -.00000224  00000+0 -63932-3 0  9995
2 48224  87.9076 352.6742 0001487  73.8401 286.2892 13.14503681206794
ONEWEB-0204             
1 48225U 21031R   25217.12127939  .00000131  00000+0  31917-3 0  9997
2 48225  87.9057 352.6015 0001925 106.4986 253.6356 13.14504387206747
ONEWEB-0205             
1 48226U 21031S   25216.79224036 -.00000240  00000+0 -68131-3 0  9997
2 48226  87.9066 352.6551 0001619 100.3214 259.8098 13.14502584206704
ONEWEB-0206             
1 48227U 21031T   25217.06974359  .00000208  00000+0  52781-3 0  9995
2 48227  87.9072 352.5802 0001727  99.6947 260.4377 13.14504498206707
ONEWEB-0182             
1 48228U 21031U   25216.83665755  .00000290  00000+0  74783-3 0  9994
2 48228  87.9073 352.6709 0001834 103.9493 256.1841 13.14502451206873
ONEWEB-0186             
1 48229U 21031V   25216.61939234  .00000115  00000+0  27680-3 0  9997
2 48229  87.9075 352.6753 0001720  97.1913 262.9412 13.14501960206806
ONEWEB-0181             
1 48230U 21031W   25216.67329476  .00000218  00000+0  55469-3 0  9996
2 48230  87.9078 352.7368 0001685  93.9411 266.1912 13.14505152206652
ONEWEB-0188             
1 48231U 21031X   25216.71135881 -.00000177  00000+0 -51264-3 0  9992
2 48231  87.9075 352.7203 0001768  98.4945 261.6385 13.14504501206563
ONEWEB-0220             
1 48232U 21031Y   25216.67490100  .00000263  00000+0  67459-3 0  9993
2 48232  87.9068 352.6675 0001588 102.4900 257.6407 13.14503065206828
ONEWEB-0165             
1 48233U 21031Z   25216.39896329 -.00000109  00000+0 -32751-3 0  9994
2 48233  87.9069 352.7662 0001581  99.0600 261.0709 13.14502778206743
ONEWEB-0199             
1 48234U 21031AA  25217.06815967  .00000254  00000+0  64974-3 0  9990
2 48234  87.9073 352.5966 0001972  97.4874 262.6480 13.14504586206734
ONEWEB-0203             
1 48235U 21031AB  25216.67806961  .00000258  00000+0  66271-3 0  9997
2 48235  87.9072 352.6770 0001882  89.2110 270.9236 13.14502460206695
