[{"OBJECT_NAME":"ONEWEB-0183","OBJECT_ID":"2021-031K","EPOCH":"2025-08-04T18:28:51.768768","MEAN_MOTION":13.14502982,"ECCENTRICITY":0.0001801,"INCLINATION":87.9073,"RA_OF_ASC_NODE":352.6849,"ARG_OF_PERICENTER":103.8689,"MEAN_ANOMALY":256.2641,"EPHEMERIS_TYPE":0,"CLASSIFICATION_TYPE":"U","NORAD_CAT_ID":48219,"ELEMENT_SET_NO":999,"REV_AT_EPOCH":20675,"BSTAR":4.6303e-5,"MEAN_MOTION_DOT":3.0e-7,"MEAN_MOTION_DDOT":0},{"OBJECT_NAME":"ONEWEB-0185","OBJECT_ID":"2021-031L","EPOCH":"2025-08-04T19:06:31.329216","MEAN_MOTION":13.14501828,"ECCENTRICITY":0.0001545,"INCLINATION":87.9071,"RA_OF_ASC_NODE":352.6451,"ARG_OF_PERICENTER":109.2423,"MEAN_ANOMALY":250.8874,"EPHEMERIS_TYPE":0,"CLASSIFICATION_TYPE":"U","NORAD_CAT_ID":48220,"ELEMENT_SET_NO":999,"REV_AT_EPOCH":20668,"BSTAR":-0.0006029,"MEAN_MOTION_DOT":-2.11e-6,"MEAN_MOTION_DDOT":0},{"OBJECT_NAME":"ONEWEB-0187","OBJECT_ID":"2021-031M","EPOCH":"2025-08-05T01:56:14.073216","MEAN_MOTION":13.1450233,"ECCENTRICITY":0.0001509,"INCLINATION":87.9074,"RA_OF_ASC_NODE":352.6356,"ARG_OF_PERICENTER":100.1788,"MEAN_ANOMALY":259.9512,"EPHEMERIS_TYPE":0,"CLASSIFICATION_TYPE":"U","NORAD_CAT_ID":48221,"ELEMENT_SET_NO":999,"REV_AT_EPOCH":20673,"BSTAR":-0.00017696,"MEAN_MOTION_DOT":-5.3e-7,"MEAN_MOTION_DDOT":0},{"OBJECT_NAME":"ONEWEB-0192","OBJECT_ID":"2021-031N","EPOCH":"2025-08-05T03:02:38.658912","MEAN_MOTION":13.145046,"ECCENTRICITY":0.0001772,"INCLINATION":87.9075,"RA_OF_ASC_NODE":352.6193,"ARG_OF_PERICENTER":95.0077,"MEAN_ANOMALY":265.1255,"EPHEMERIS_TYPE":0,"CLASSIFICATION_TYPE":"U","NORAD_CAT_ID":48222,"ELEMENT_SET_NO":999,"REV_AT_EPOCH":20666,"BSTAR":0.00056438,"MEAN_MOTION_DOT":2.22e-6,"MEAN_MOTION_DDOT":0},{"OBJECT_NAME":"ONEWEB-0219","OBJECT_ID":"2021-031P","EPOCH":"2025-08-04T19:14:32.227296","MEAN_MOTION":13.145053,"ECCENTRICITY":0.0001551,"INCLINATION":87.9072,"RA_OF_ASC_NODE":352.6562,"ARG_OF_PERICENTER":103.4178,"MEAN_ANOMALY":256.7124,"EPHEMERIS_TYPE":0,"CLASSIFICATION_TYPE":"U","NORAD_CAT_ID":48223,"ELEMENT_SET_NO":999,"REV_AT_EPOCH":20681,"BSTAR":-0.00044001,"MEAN_MOTION_DOT":-1.5e-6,"MEAN_MOTION_DDOT":0},{"OBJECT_NAME":"ONEWEB-0202","OBJECT_ID":"2021-031Q","EPOCH":"2025-08-04T18:47:06.792000","MEAN_MOTION":13.14503681,"ECCENTRICITY":0.0001487,"INCLINATION":87.9076,"RA_OF_ASC_NODE":352.6742,"ARG_OF_PERICENTER":73.8401,"MEAN_ANOMALY":286.2892,"EPHEMERIS_TYPE":0,"CLASSIFICATION_TYPE":"U","NORAD_CAT_ID":48224,"ELEMENT_SET_NO":999,"REV_AT_EPOCH":20679,"BSTAR":-0.00063932,"MEAN_MOTION_DOT":-2.24e-6,"MEAN_MOTION_DDOT":0},{"OBJECT_NAME":"ONEWEB-0204","OBJECT_ID":"2021-031R","EPOCH":"2025-08-05T02:54:38.539296","MEAN_MOTION":13.14504387,"ECCENTRICITY":0.0001925,"INCLINATION":87.9057,"RA_OF_ASC_NODE":352.6015,"ARG_OF_PERICENTER":106.4986,"MEAN_ANOMALY":253.6356,"EPHEMERIS_TYPE":0,"CLASSIFICATION_TYPE":"U","NORAD_CAT_ID":48225,"ELEMENT_SET_NO":999,"REV_AT_EPOCH":20674,"BSTAR":0.00031917,"MEAN_MOTION_DOT":1.31e-6,"MEAN_MOTION_DDOT":0},{"OBJECT_NAME":"ONEWEB-0205","OBJECT_ID":"2021-031S","EPOCH":"2025-08-04T19:00:49.567104","MEAN_MOTION":13.14502584,"ECCENTRICITY":0.0001619,"INCLINATION":87.9066,"RA_OF_ASC_NODE":352.6551,"ARG_OF_PERICENTER":100.3214,"MEAN_ANOMALY":259.8098,"EPHEMERIS_TYPE":0,"CLASSIFICATION_TYPE":"U","NORAD_CAT_ID":48226,"ELEMENT_SET_NO":999,"REV_AT_EPOCH":20670,"BSTAR":-0.00068131,"MEAN_MOTION_DOT":-2.4e-6,"MEAN_MOTION_DDOT":0},{"OBJECT_NAME":"ONEWEB-0206","OBJECT_ID":"2021-031T","EPOCH":"2025-08-05T01:40:25.846176","MEAN_MOTION":13.14504498,"ECCENTRICITY":0.0001727,"INCLINATION":87.9072,"RA_OF_ASC_NODE":352.5802,"ARG_OF_PERICENTER":99.6947,"MEAN_ANOMALY":260.4377,"EPHEMERIS_TYPE":0,"CLASSIFICATION_TYPE":"U","NORAD_CAT_ID":48227,"ELEMENT_SET_NO":999,"REV_AT_EPOCH":20670,"BSTAR":0.00052781,"MEAN_MOTION_DOT":2.08e-6,"MEAN_MOTION_DDOT":0},{"OBJECT_NAME":"ONEWEB-0182","OBJECT_ID":"2021-031U","EPOCH":"2025-08-04T20:04:47.212320","MEAN_MOTION":13.14502451,"ECCENTRICITY":0.0001834,"INCLINATION":87.9073,"RA_OF_ASC_NODE":352.6709,"ARG_OF_PERICENTER":103.9493,"MEAN_ANOMALY":256.1841,"EPHEMERIS_TYPE":0,"CLASSIFICATION_TYPE":"U","NORAD_CAT_ID":48228,"ELEMENT_SET_NO":999,"REV_AT_EPOCH":20687,"BSTAR":0.00074783,"MEAN_MOTION_DOT":2.9e-6,"MEAN_MOTION_DDOT":0},{"OBJECT_NAME":"ONEWEB-0186","OBJECT_ID":"2021-031V","EPOCH":"2025-08-04T14:51:55.498176","MEAN_MOTION":13.1450196,"ECCENTRICITY":0.000172,"INCLINATION":87.9075,"RA_OF_ASC_NODE":352.6753,"ARG_OF_PERICENTER":97.1913,"MEAN_ANOMALY":262.9412,"EPHEMERIS_TYPE":0,"CLASSIFICATION_TYPE":"U","NORAD_CAT_ID":48229,"ELEMENT_SET_NO":999,"REV_AT_EPOCH":20680,"BSTAR":0.0002768,"MEAN_MOTION_DOT":1.15e-6,"MEAN_MOTION_DDOT":0},{"OBJECT_NAME":"ONEWEB-0181","OBJECT_ID":"2021-031W","EPOCH":"2025-08-04T16:09:32.667264","MEAN_MOTION":13.14505152,"ECCENTRICITY":0.0001685,"INCLINATION":87.9078,"RA_OF_ASC_NODE":352.7368,"ARG_OF_PERICENTER":93.9411,"MEAN_ANOMALY":266.1912,"EPHEMERIS_TYPE":0,"CLASSIFICATION_TYPE":"U","NORAD_CAT_ID":48230,"ELEMENT_SET_NO":999,"REV_AT_EPOCH":20665,"BSTAR":0.00055469,"MEAN_MOTION_DOT":2.18e-6,"MEAN_MOTION_DDOT":0},{"OBJECT_NAME":"ONEWEB-0188","OBJECT_ID":"2021-031X","EPOCH":"2025-08-04T17:04:21.401184","MEAN_MOTION":13.14504501,"ECCENTRICITY":0.0001768,"INCLINATION":87.9075,"RA_OF_ASC_NODE":352.7203,"ARG_OF_PERICENTER":98.4945,"MEAN_ANOMALY":261.6385,"EPHEMERIS_TYPE":0,"CLASSIFICATION_TYPE":"U","NORAD_CAT_ID":48231,"ELEMENT_SET_NO":999,"REV_AT_EPOCH":20656,"BSTAR":-0.00051264,"MEAN_MOTION_DOT":-1.77e-6,"MEAN_MOTION_DDOT":0},{"OBJECT_NAME":"ONEWEB-0220","OBJECT_ID":"2021-031Y","EPOCH":"2025-08-04T16:11:51.446400","MEAN_MOTION":13.14503065,"ECCENTRICITY":0.0001588,"INCLINATION":87.9068,"RA_OF_ASC_NODE":352.6675,"ARG_OF_PERICENTER":102.49,"MEAN_ANOMALY":257.6407,"EPHEMERIS_TYPE":0,"CLASSIFICATION_TYPE":"U","NORAD_CAT_ID":48232,"ELEMENT_SET_NO":999,"REV_AT_EPOCH":20682,"BSTAR":0.00067459,"MEAN_MOTION_DOT":2.63e-6,"MEAN_MOTION_DDOT":0},{"OBJECT_NAME":"ONEWEB-0165","OBJECT_ID":"2021-031Z","EPOCH":"2025-08-04T09:34:30.428256","MEAN_MOTION":13.14502778,"ECCENTRICITY":0.0001581,"INCLINATION":87.9069,"RA_OF_ASC_NODE":352.7662,"ARG_OF_PERICENTER":99.06,"MEAN_ANOMALY":261.0709,"EPHEMERIS_TYPE":0,"CLASSIFICATION_TYPE":"U","NORAD_CAT_ID":48233,"ELEMENT_SET_NO":999,"REV_AT_EPOCH":20674,"BSTAR":-0.00032751,"MEAN_MOTION_DOT":-1.09e-6,"MEAN_MOTION_DDOT":0},{"OBJECT_NAME":"ONEWEB-0199","OBJECT_ID":"2021-031AA","EPOCH":"2025-08-05T01:38:08.995488","MEAN_MOTION":13.14504586,"ECCENTRICITY":0.0001972,"INCLINATION":87.9073,"RA_OF_ASC_NODE":352.5966,"ARG_OF_PERICENTER":97.4874,"MEAN_ANOMALY":262.648,"EPHEMERIS_TYPE":0,"CLASSIFICATION_TYPE":"U","NORAD_CAT_ID":48234,"ELEMENT_SET_NO":999,"REV_AT_EPOCH":20673,"BSTAR":0.00064974,"MEAN_MOTION_DOT":2.54e-6,"MEAN_MOTION_DDOT":0},{"OBJECT_NAME":"ONEWEB-0203","OBJECT_ID":"2021-031AB","EPOCH":"2025-08-04T16:16:25.214304","MEAN_MOTION":13.1450246,"ECCENTRICITY":0.0001882,"INCLINATION":87.9072,"RA_OF_ASC_NODE":352.677,"ARG_OF_PERICENTER":89.211,"MEAN_ANOMALY":270.9236,"EPHEMERIS_TYPE":0,"CLASSIFICATION_TYPE":"U","NORAD_CAT_ID":48235,"ELEMENT_SET_NO":999,"REV_AT_EPOCH":20669,"BSTAR":0.00066271,"MEAN_MOTION_DOT":2.58e-6,"MEAN_MOTION_DDOT":0}]
